start=new Date('2021-10-14T00:00:00.000Z').valueOf();
sats=[{"PERIOD":"95.592","ECCENTRICITY":"0.00014640","PERIAPSIS":"546.170","OBJECT_NAME":"STARLINK-1437","TIME_SYSTEM":"UTC","REV_AT_EPOCH":"7678","COUNTRY_CODE":"US","FILE":"3161149","NORAD_CAT_ID":"45714","RCS_SIZE":"LARGE","CLASSIFICATION_TYPE":"U","GP_ID":"187098763","SITE":"AFETR","TLE_LINE2":"2 45714  53.0553  55.4505 0001464 104.7759 255.3392 15.06409757 76787","EPHEMERIS_TYPE":"0","INCLINATION":"53.0553","MEAN_ANOMALY":"255.3392","TLE_LINE1":"1 45714U 20035BK  21286.63928073  .00003462  00000-0  25110-3 0  9995","LAUNCH_DATE":"2020-06-04","MEAN_MOTION":"15.06409757","EPOCH":"2021-10-13T15:20:33.855072","MEAN_MOTION_DOT":"0.00003462","BSTAR":"0.00025110000000","MEAN_MOTION_DDOT":"0.0000000000000","OBJECT_TYPE":"PAYLOAD","RA_OF_ASC_NODE":"55.4505","REF_FRAME":"TEME","APOAPSIS":"548.198","OBJECT_ID":"2020-035BK","DECAY_DATE":null,"ELEMENT_SET_NO":"999","MEAN_ELEMENT_THEORY":"SGP4","ARG_OF_PERICENTER":"104.7759","SEMIMAJOR_AXIS":"6925.319","CENTER_NAME":"EARTH"},{"EPHEMERIS_TYPE":"0","INCLINATION":"52.9981","SITE":"AFETR","TLE_LINE2":"2 45716  52.9981 276.9708 0004576 353.7952   6.3002 15.60981757 78717","GP_ID":"187099515","RCS_SIZE":"LARGE","CLASSIFICATION_TYPE":"U","COUNTRY_CODE":"US","FILE":"3161149","NORAD_CAT_ID":"45716","OBJECT_NAME":"STARLINK-1439","TIME_SYSTEM":"UTC","REV_AT_EPOCH":"7871","PERIOD":"92.250","PERIAPSIS":"381.727","ECCENTRICITY":"0.00045760","MEAN_ELEMENT_THEORY":"SGP4","ARG_OF_PERICENTER":"353.7952","SEMIMAJOR_AXIS":"6762.957","CENTER_NAME":"EARTH","ELEMENT_SET_NO":"999","OBJECT_ID":"2020-035BM","DECAY_DATE":null,"MEAN_MOTION_DDOT":"0.0000000000000","RA_OF_ASC_NODE":"276.9708","OBJECT_TYPE":"PAYLOAD","REF_FRAME":"TEME","APOAPSIS":"387.917","EPOCH":"2021-10-13T16:11:21.574464","MEAN_MOTION_DOT":"0.00097330","BSTAR":"0.00113060000000","MEAN_MOTION":"15.60981757","MEAN_ANOMALY":"6.3002","TLE_LINE1":"1 45716U 20035BM  21286.67455526  .00097330  00000-0  11306-2 0  9997","LAUNCH_DATE":"2020-06-04"},{"DECAY_DATE":null,"OBJECT_ID":"2020-038A","ELEMENT_SET_NO":"999","ARG_OF_PERICENTER":"76.4254","SEMIMAJOR_AXIS":"6925.356","CENTER_NAME":"EARTH","MEAN_ELEMENT_THEORY":"SGP4","LAUNCH_DATE":"2020-06-13","MEAN_ANOMALY":"283.6873","TLE_LINE1":"1 45730U 20038A   21286.65034047  .00000759  00000-0  69858-4 0  9991","MEAN_MOTION":"15.06397645","BSTAR":"0.00006985800000","MEAN_MOTION_DOT":"0.00000759","EPOCH":"2021-10-13T15:36:29.416608","APOAPSIS":"548.084","REF_FRAME":"TEME","RA_OF_ASC_NODE":"255.3848","OBJECT_TYPE":"PAYLOAD","MEAN_MOTION_DDOT":"0.0000000000000","GP_ID":"187100262","TLE_LINE2":"2 45730  53.0514 255.3848 0001247  76.4254 283.6873 15.06397645 73830","SITE":"AFETR","INCLINATION":"53.0514","EPHEMERIS_TYPE":"0","ECCENTRICITY":"0.00012470","PERIAPSIS":"546.357","PERIOD":"95.592","REV_AT_EPOCH":"7383","TIME_SYSTEM":"UTC","OBJECT_NAME":"STARLINK-1461","NORAD_CAT_ID":"45730","FILE":"3161149","COUNTRY_CODE":"US","CLASSIFICATION_TYPE":"U","RCS_SIZE":"LARGE"},{"MEAN_MOTION_DOT":"0.00000503","BSTAR":"0.00005264500000","EPOCH":"2021-10-13T08:00:02.127744","REF_FRAME":"TEME","APOAPSIS":"548.218","MEAN_MOTION_DDOT":"0.0000000000000","OBJECT_TYPE":"PAYLOAD","RA_OF_ASC_NODE":"256.8213","LAUNCH_DATE":"2020-06-13","TLE_LINE1":"1 45731U 20038B   21286.33335796  .00000503  00000-0  52645-4 0  9995","MEAN_ANOMALY":"288.5595","MEAN_MOTION":"15.06400208","ELEMENT_SET_NO":"999","MEAN_ELEMENT_THEORY":"SGP4","SEMIMAJOR_AXIS":"6925.348","ARG_OF_PERICENTER":"71.5552","CENTER_NAME":"EARTH","DECAY_DATE":null,"OBJECT_ID":"2020-038B","NORAD_CAT_ID":"45731","COUNTRY_CODE":"US","FILE":"3160689","RCS_SIZE":"LARGE","CLASSIFICATION_TYPE":"U","PERIOD":"95.592","ECCENTRICITY":"0.00014520","PERIAPSIS":"546.207","REV_AT_EPOCH":"7377","TIME_SYSTEM":"UTC","OBJECT_NAME":"STARLINK-1465","INCLINATION":"53.0538","EPHEMERIS_TYPE":"0","GP_ID":"187065873","TLE_LINE2":"2 45731  53.0538 256.8213 0001452  71.5552 288.5595 15.06400208 73772","SITE":"AFETR"},{"EPHEMERIS_TYPE":"0","INCLINATION":"53.0540","GP_ID":"187098764","SITE":"AFETR","TLE_LINE2":"2 45732  53.0540 255.3708 0001548  63.8918 296.2230 15.06418415 73822","FILE":"3161149","COUNTRY_CODE":"US","NORAD_CAT_ID":"45732","CLASSIFICATION_TYPE":"U","RCS_SIZE":"LARGE","PERIAPSIS":"546.085","ECCENTRICITY":"0.00015480","PERIOD":"95.591","TIME_SYSTEM":"UTC","OBJECT_NAME":"STARLINK-1466","REV_AT_EPOCH":"7382","ELEMENT_SET_NO":"999","SEMIMAJOR_AXIS":"6925.292","ARG_OF_PERICENTER":"63.8918","CENTER_NAME":"EARTH","MEAN_ELEMENT_THEORY":"SGP4","OBJECT_ID":"2020-038C","DECAY_DATE":null,"EPOCH":"2021-10-13T15:41:48.419232","BSTAR":"0.00007591500000","MEAN_MOTION_DOT":"0.00000850","OBJECT_TYPE":"PAYLOAD","RA_OF_ASC_NODE":"255.3708","MEAN_MOTION_DDOT":"0.0000000000000","APOAPSIS":"548.229","REF_FRAME":"TEME","MEAN_ANOMALY":"296.2230","TLE_LINE1":"1 45732U 20038C   21286.65403263  .00000850  00000-0  75915-4 0  9996","LAUNCH_DATE":"2020-06-13","MEAN_MOTION":"15.06418415"},{"SITE":"AFETR","TLE_LINE2":"2 45733  53.0548 256.8345 0001402  74.1174 285.9970 15.06420897 73779","GP_ID":"187066875","EPHEMERIS_TYPE":"0","INCLINATION":"53.0548","TIME_SYSTEM":"UTC","OBJECT_NAME":"STARLINK-1467","REV_AT_EPOCH":"7377","PERIOD":"95.591","PERIAPSIS":"546.179","ECCENTRICITY":"0.00014020","RCS_SIZE":"LARGE","CLASSIFICATION_TYPE":"U","COUNTRY_CODE":"US","FILE":"3160689","NORAD_CAT_ID":"45733","OBJECT_ID":"2020-038D","DECAY_DATE":null,"MEAN_ELEMENT_THEORY":"SGP4","SEMIMAJOR_AXIS":"6925.285","CENTER_NAME":"EARTH","ARG_OF_PERICENTER":"74.1174","ELEMENT_SET_NO":"999","MEAN_MOTION":"15.06420897","TLE_LINE1":"1 45733U 20038D   21286.32963976  .00005160  00000-0  36483-3 0  9998","MEAN_ANOMALY":"285.9970","LAUNCH_DATE":"2020-06-13","MEAN_MOTION_DDOT":"0.0000000000000","OBJECT_TYPE":"PAYLOAD","RA_OF_ASC_NODE":"256.8345","REF_FRAME":"TEME","APOAPSIS":"548.120","EPOCH":"2021-10-13T07:54:40.875264","MEAN_MOTION_DOT":"0.00005160","BSTAR":"0.00036483000000"},{"GP_ID":"187099763","SITE":"AFETR","TLE_LINE2":"2 45734  53.0529 255.4183 0001088  72.5099 287.6009 15.06399375 73826","EPHEMERIS_TYPE":"0","INCLINATION":"53.0529","ECCENTRICITY":"0.00010880","PERIAPSIS":"546.462","PERIOD":"95.592","TIME_SYSTEM":"UTC","OBJECT_NAME":"STARLINK-1468","REV_AT_EPOCH":"7382","FILE":"3161149","COUNTRY_CODE":"US","NORAD_CAT_ID":"45734","CLASSIFICATION_TYPE":"U","RCS_SIZE":"LARGE","OBJECT_ID":"2020-038E","DECAY_DATE":null,"ELEMENT_SET_NO":"999","SEMIMAJOR_AXIS":"6925.350","CENTER_NAME":"EARTH","ARG_OF_PERICENTER":"72.5099","MEAN_ELEMENT_THEORY":"SGP4","MEAN_ANOMALY":"287.6009","TLE_LINE1":"1 45734U 20038E   21286.64294719 -.00002689  00000-0 -16168-3 0  9999","LAUNCH_DATE":"2020-06-13","MEAN_MOTION":"15.06399375","EPOCH":"2021-10-13T15:25:50.637216","BSTAR":"-0.00016168000000","MEAN_MOTION_DOT":"-0.00002689","OBJECT_TYPE":"PAYLOAD","RA_OF_ASC_NODE":"255.4183","MEAN_MOTION_DDOT":"0.0000000000000","APOAPSIS":"547.969","REF_FRAME":"TEME"},{"INCLINATION":"53.0545","EPHEMERIS_TYPE":"0","TLE_LINE2":"2 45735  53.0545 255.5563 0001346  69.4121 290.7012 15.06397833 73811","SITE":"AFETR","GP_ID":"187099014","CLASSIFICATION_TYPE":"U","RCS_SIZE":"LARGE","NORAD_CAT_ID":"45735","FILE":"3161149","COUNTRY_CODE":"US","REV_AT_EPOCH":"7381","OBJECT_NAME":"STARLINK-1471","TIME_SYSTEM":"UTC","ECCENTRICITY":"0.00013460","PERIAPSIS":"546.288","PERIOD":"95.592","SEMIMAJOR_AXIS":"6925.355","ARG_OF_PERICENTER":"69.4121","CENTER_NAME":"EARTH","MEAN_ELEMENT_THEORY":"SGP4","ELEMENT_SET_NO":"999","DECAY_DATE":null,"OBJECT_ID":"2020-038F","APOAPSIS":"548.152","REF_FRAME":"TEME","RA_OF_ASC_NODE":"255.5563","OBJECT_TYPE":"PAYLOAD","MEAN_MOTION_DDOT":"0.0000000000000","BSTAR":"0.00006079800000","MEAN_MOTION_DOT":"0.00000624","EPOCH":"2021-10-13T14:43:24.674592","MEAN_MOTION":"15.06397833","LAUNCH_DATE":"2020-06-13","TLE_LINE1":"1 45735U 20038F   21286.61348003  .00000624  00000-0  60798-4 0  9997","MEAN_ANOMALY":"290.7012"},{"DECAY_DATE":null,"OBJECT_ID":"2020-038G","ARG_OF_PERICENTER":"91.7518","SEMIMAJOR_AXIS":"6925.332","CENTER_NAME":"EARTH","MEAN_ELEMENT_THEORY":"SGP4","ELEMENT_SET_NO":"999","MEAN_MOTION":"15.06405459","LAUNCH_DATE":"2020-06-13","MEAN_ANOMALY":"268.3631","TLE_LINE1":"1 45736U 20038G   21286.65771060  .00000729  00000-0  67801-4 0  9993","APOAPSIS":"548.166","REF_FRAME":"TEME","RA_OF_ASC_NODE":"255.3549","OBJECT_TYPE":"PAYLOAD","MEAN_MOTION_DDOT":"0.0000000000000","BSTAR":"0.00006780100000","MEAN_MOTION_DOT":"0.00000729","EPOCH":"2021-10-13T15:47:06.195840","TLE_LINE2":"2 45736  53.0540 255.3549 0001399  91.7518 268.3631 15.06405459 73828","SITE":"AFETR","GP_ID":"187099264","INCLINATION":"53.0540","EPHEMERIS_TYPE":"0","REV_AT_EPOCH":"7382","OBJECT_NAME":"STARLINK-1472","TIME_SYSTEM":"UTC","PERIAPSIS":"546.228","ECCENTRICITY":"0.00013990","PERIOD":"95.592","CLASSIFICATION_TYPE":"U","RCS_SIZE":"LARGE","NORAD_CAT_ID":"45736","FILE":"3161149","COUNTRY_CODE":"US"},{"OBJECT_ID":"2020-038J","DECAY_DATE":null,"SEMIMAJOR_AXIS":"6925.334","CENTER_NAME":"EARTH","ARG_OF_PERICENTER":"71.5933","MEAN_ELEMENT_THEORY":"SGP4","ELEMENT_SET_NO":"999","MEAN_MOTION":"15.06404676","MEAN_ANOMALY":"288.5222","TLE_LINE1":"1 45738U 20038J   21286.33703872  .00000796  00000-0  72351-4 0  9996","LAUNCH_DATE":"2020-06-13","OBJECT_TYPE":"PAYLOAD","RA_OF_ASC_NODE":"256.8024","MEAN_MOTION_DDOT":"0.0000000000000","APOAPSIS":"548.260","REF_FRAME":"TEME","EPOCH":"2021-10-13T08:05:20.145408","BSTAR":"0.00007235100000","MEAN_MOTION_DOT":"0.00000796","SITE":"AFETR","TLE_LINE2":"2 45738  53.0519 256.8024 0001532  71.5933 288.5222 15.06404676 73770","GP_ID":"187067375","EPHEMERIS_TYPE":"0","INCLINATION":"53.0519","TIME_SYSTEM":"UTC","OBJECT_NAME":"STARLINK-1474","REV_AT_EPOCH":"7377","ECCENTRICITY":"0.00015320","PERIAPSIS":"546.138","PERIOD":"95.592","CLASSIFICATION_TYPE":"U","RCS_SIZE":"LARGE","FILE":"3160689","COUNTRY_CODE":"US","NORAD_CAT_ID":"45738"}];
